SL-16 R/B               
1 25407U 98045B   26089.48051493 -.00000194  00000+0 -73656-4 0  9999
2 25407  71.0097 137.8541 0008054 336.4517  23.6236 14.16193521430045
ISS (ZARYA)             
1 25544U 98067A   26089.35874860  .00011753  00000+0  22376-3 0  9995
2 25544  51.6343 330.1789 0006212 250.3608 109.6710 15.48652900559531
CZ-4B R/B               
1 25732U 99025C   26089.56797839  .00000062  00000+0  50920-4 0  9990
2 25732  98.6585 133.3511 0035991 285.2340 239.1450 14.18269421391128
OKEAN-O                 
1 25860U 99039A   26089.40291127  .00000883  00000+0  12252-3 0  9995
2 25860  97.9399 149.0795 0000855  95.4998 264.6312 14.80368962437450
SL-16 R/B               
1 25861U 99039B   26089.43084647  .00000740  00000+0  10048-3 0  9999
2 25861  97.9921 148.4920 0014680 184.9161 175.1909 14.81760034439932
DELTA 2 R/B             
1 25876U 99041E   26089.32510804  .00001087  00000+0  21414-3 0  9999
2 25876  51.7607 218.8471 0502653  49.2844 315.0634 14.11884816365940
HELIOS 1B               
1 25977U 99064A   26089.22725588  .00002108  00000+0  23738-3 0  9998
2 25977  98.1673 352.0722 0001739  47.1578 312.9784 14.87777543688312
TERRA                   
1 25994U 99068A   26089.46524576  .00000566  00000+0  12444-3 0  9999
2 25994  97.9549 142.1018 0003603 108.4460 306.0988 14.61036896398116
SL-16 R/B               
1 26070U 00006B   26089.36006696  .00000316  00000+0  18468-3 0  9991
2 26070  71.0026  54.3705 0015613 157.4777 202.7034 14.15828374351483
TITAN 4B R/B            
1 26474U 00047B   26089.43393857  .00005080  00000+0  31638-3 0  9997
2 26474  67.9917 342.1720 0039874  11.0705 349.1312 15.09754708396049
ENVISAT                 
1 27386U 02009A   26089.48059490  .00000146  00000+0  61271-4 0  9992
2 27386  98.3762  42.5873 0001217  81.7946  27.3575 14.39044192262161
IDEFIX & ARIANE 42P R/B 
1 27422U 02021B   26089.40182933  .00000332  00000+0  14253-3 0  9992
2 27422  98.5894  27.7635 0012654 123.2530 236.9867 14.31040174246981
