CCSDS_OMM_VERS = 2.0
CREATION_DATE  = 
ORIGINATOR     = 

OBJECT_NAME    = SL-16 R/B
OBJECT_ID      = 1998-045B
CENTER_NAME    = EARTH
REF_FRAME      = TEME
TIME_SYSTEM    = UTC
MEAN_ELEMENT_THEORY = SGP/SGP4

EPOCH          = 2026-03-30T11:31:56.489952
MEAN_MOTION    = 14.16193521
ECCENTRICITY   = .0008054
INCLINATION    = 71.0097
RA_OF_ASC_NODE = 137.8541
ARG_OF_PERICENTER = 336.4517
MEAN_ANOMALY   = 23.6236

EPHEMERIS_TYPE = 0
CLASSIFICATION_TYPE = U
NORAD_CAT_ID   = 25407
ELEMENT_SET_NO = 999
REV_AT_EPOCH   = 43004
BSTAR          = -.73656E-4
MEAN_MOTION_DOT = -.194E-5
MEAN_MOTION_DDOT = 0

CCSDS_OMM_VERS = 2.0
CREATION_DATE  = 
ORIGINATOR     = 

OBJECT_NAME    = ISS (ZARYA)
OBJECT_ID      = 1998-067A
CENTER_NAME    = EARTH
REF_FRAME      = TEME
TIME_SYSTEM    = UTC
MEAN_ELEMENT_THEORY = SGP/SGP4

EPOCH          = 2026-03-30T08:36:35.879040
MEAN_MOTION    = 15.48652900
ECCENTRICITY   = .0006212
INCLINATION    = 51.6343
RA_OF_ASC_NODE = 330.1789
ARG_OF_PERICENTER = 250.3608
MEAN_ANOMALY   = 109.6710

EPHEMERIS_TYPE = 0
CLASSIFICATION_TYPE = U
NORAD_CAT_ID   = 25544
ELEMENT_SET_NO = 999
REV_AT_EPOCH   = 55953
BSTAR          = .22376E-3
MEAN_MOTION_DOT = .11753E-3
MEAN_MOTION_DDOT = 0

CCSDS_OMM_VERS = 2.0
CREATION_DATE  = 
ORIGINATOR     = 

OBJECT_NAME    = CZ-4B R/B
OBJECT_ID      = 1999-025C
CENTER_NAME    = EARTH
REF_FRAME      = TEME
TIME_SYSTEM    = UTC
MEAN_ELEMENT_THEORY = SGP/SGP4

EPOCH          = 2026-03-30T13:37:53.332896
MEAN_MOTION    = 14.18269421
ECCENTRICITY   = .0035991
INCLINATION    = 98.6585
RA_OF_ASC_NODE = 133.3511
ARG_OF_PERICENTER = 285.2340
MEAN_ANOMALY   = 239.1450

EPHEMERIS_TYPE = 0
CLASSIFICATION_TYPE = U
NORAD_CAT_ID   = 25732
ELEMENT_SET_NO = 999
REV_AT_EPOCH   = 39112
BSTAR          = .5092E-4
MEAN_MOTION_DOT = .62E-6
MEAN_MOTION_DDOT = 0

CCSDS_OMM_VERS = 2.0
CREATION_DATE  = 
ORIGINATOR     = 

OBJECT_NAME    = OKEAN-O
OBJECT_ID      = 1999-039A
CENTER_NAME    = EARTH
REF_FRAME      = TEME
TIME_SYSTEM    = UTC
MEAN_ELEMENT_THEORY = SGP/SGP4

EPOCH          = 2026-03-30T09:40:11.533728
MEAN_MOTION    = 14.80368962
ECCENTRICITY   = .0000855
INCLINATION    = 97.9399
RA_OF_ASC_NODE = 149.0795
ARG_OF_PERICENTER = 95.4998
MEAN_ANOMALY   = 264.6312

EPHEMERIS_TYPE = 0
CLASSIFICATION_TYPE = U
NORAD_CAT_ID   = 25860
ELEMENT_SET_NO = 999
REV_AT_EPOCH   = 43745
BSTAR          = .12252E-3
MEAN_MOTION_DOT = .883E-5
MEAN_MOTION_DDOT = 0

CCSDS_OMM_VERS = 2.0
CREATION_DATE  = 
ORIGINATOR     = 

OBJECT_NAME    = SL-16 R/B
OBJECT_ID      = 1999-039B
CENTER_NAME    = EARTH
REF_FRAME      = TEME
TIME_SYSTEM    = UTC
MEAN_ELEMENT_THEORY = SGP/SGP4

EPOCH          = 2026-03-30T10:20:25.135008
MEAN_MOTION    = 14.81760034
ECCENTRICITY   = .001468
INCLINATION    = 97.9921
RA_OF_ASC_NODE = 148.4920
ARG_OF_PERICENTER = 184.9161
MEAN_ANOMALY   = 175.1909

EPHEMERIS_TYPE = 0
CLASSIFICATION_TYPE = U
NORAD_CAT_ID   = 25861
ELEMENT_SET_NO = 999
REV_AT_EPOCH   = 43993
BSTAR          = .10048E-3
MEAN_MOTION_DOT = .74E-5
MEAN_MOTION_DDOT = 0

CCSDS_OMM_VERS = 2.0
CREATION_DATE  = 
ORIGINATOR     = 

OBJECT_NAME    = DELTA 2 R/B
OBJECT_ID      = 1999-041E
CENTER_NAME    = EARTH
REF_FRAME      = TEME
TIME_SYSTEM    = UTC
MEAN_ELEMENT_THEORY = SGP/SGP4

EPOCH          = 2026-03-30T07:48:09.334656
MEAN_MOTION    = 14.11884816
ECCENTRICITY   = .0502653
INCLINATION    = 51.7607
RA_OF_ASC_NODE = 218.8471
ARG_OF_PERICENTER = 49.2844
MEAN_ANOMALY   = 315.0634

EPHEMERIS_TYPE = 0
CLASSIFICATION_TYPE = U
NORAD_CAT_ID   = 25876
ELEMENT_SET_NO = 999
REV_AT_EPOCH   = 36594
BSTAR          = .21414E-3
MEAN_MOTION_DOT = .1087E-4
MEAN_MOTION_DDOT = 0

CCSDS_OMM_VERS = 2.0
CREATION_DATE  = 
ORIGINATOR     = 

OBJECT_NAME    = HELIOS 1B
OBJECT_ID      = 1999-064A
CENTER_NAME    = EARTH
REF_FRAME      = TEME
TIME_SYSTEM    = UTC
MEAN_ELEMENT_THEORY = SGP/SGP4

EPOCH          = 2026-03-30T05:27:14.908032
MEAN_MOTION    = 14.87777543
ECCENTRICITY   = .0001739
INCLINATION    = 98.1673
RA_OF_ASC_NODE = 352.0722
ARG_OF_PERICENTER = 47.1578
MEAN_ANOMALY   = 312.9784

EPHEMERIS_TYPE = 0
CLASSIFICATION_TYPE = U
NORAD_CAT_ID   = 25977
ELEMENT_SET_NO = 999
REV_AT_EPOCH   = 68831
BSTAR          = .23738375E-3
MEAN_MOTION_DOT = .2108E-4
MEAN_MOTION_DDOT = 0

CCSDS_OMM_VERS = 2.0
CREATION_DATE  = 
ORIGINATOR     = 

OBJECT_NAME    = TERRA
OBJECT_ID      = 1999-068A
CENTER_NAME    = EARTH
REF_FRAME      = TEME
TIME_SYSTEM    = UTC
MEAN_ELEMENT_THEORY = SGP/SGP4

EPOCH          = 2026-03-30T11:09:57.233664
MEAN_MOTION    = 14.61036896
ECCENTRICITY   = .0003603
INCLINATION    = 97.9549
RA_OF_ASC_NODE = 142.1018
ARG_OF_PERICENTER = 108.4460
MEAN_ANOMALY   = 306.0988

EPHEMERIS_TYPE = 0
CLASSIFICATION_TYPE = U
NORAD_CAT_ID   = 25994
ELEMENT_SET_NO = 999
REV_AT_EPOCH   = 39811
BSTAR          = .12444E-3
MEAN_MOTION_DOT = .566E-5
MEAN_MOTION_DDOT = 0

CCSDS_OMM_VERS = 2.0
CREATION_DATE  = 
ORIGINATOR     = 

OBJECT_NAME    = SL-16 R/B
OBJECT_ID      = 2000-006B
CENTER_NAME    = EARTH
REF_FRAME      = TEME
TIME_SYSTEM    = UTC
MEAN_ELEMENT_THEORY = SGP/SGP4

EPOCH          = 2026-03-30T08:38:29.785344
MEAN_MOTION    = 14.15828374
ECCENTRICITY   = .0015613
INCLINATION    = 71.0026
RA_OF_ASC_NODE = 54.3705
ARG_OF_PERICENTER = 157.4777
MEAN_ANOMALY   = 202.7034

EPHEMERIS_TYPE = 0
CLASSIFICATION_TYPE = U
NORAD_CAT_ID   = 26070
ELEMENT_SET_NO = 999
REV_AT_EPOCH   = 35148
BSTAR          = .18468E-3
MEAN_MOTION_DOT = .316E-5
MEAN_MOTION_DDOT = 0

CCSDS_OMM_VERS = 2.0
CREATION_DATE  = 
ORIGINATOR     = 

OBJECT_NAME    = TITAN 4B R/B
OBJECT_ID      = 2000-047B
CENTER_NAME    = EARTH
REF_FRAME      = TEME
TIME_SYSTEM    = UTC
MEAN_ELEMENT_THEORY = SGP/SGP4

EPOCH          = 2026-03-30T10:24:52.292448
MEAN_MOTION    = 15.09754708
ECCENTRICITY   = .0039874
INCLINATION    = 67.9917
RA_OF_ASC_NODE = 342.1720
ARG_OF_PERICENTER = 11.0705
MEAN_ANOMALY   = 349.1312

EPHEMERIS_TYPE = 0
CLASSIFICATION_TYPE = U
NORAD_CAT_ID   = 26474
ELEMENT_SET_NO = 999
REV_AT_EPOCH   = 39604
BSTAR          = .31638E-3
MEAN_MOTION_DOT = .508E-4
MEAN_MOTION_DDOT = 0

CCSDS_OMM_VERS = 2.0
CREATION_DATE  = 
ORIGINATOR     = 

OBJECT_NAME    = ENVISAT
OBJECT_ID      = 2002-009A
CENTER_NAME    = EARTH
REF_FRAME      = TEME
TIME_SYSTEM    = UTC
MEAN_ELEMENT_THEORY = SGP/SGP4

EPOCH          = 2026-03-30T11:32:03.399360
MEAN_MOTION    = 14.39044192
ECCENTRICITY   = .0001217
INCLINATION    = 98.3762
RA_OF_ASC_NODE = 42.5873
ARG_OF_PERICENTER = 81.7946
MEAN_ANOMALY   = 27.3575

EPHEMERIS_TYPE = 0
CLASSIFICATION_TYPE = U
NORAD_CAT_ID   = 27386
ELEMENT_SET_NO = 999
REV_AT_EPOCH   = 26216
BSTAR          = .61271E-4
MEAN_MOTION_DOT = .146E-5
MEAN_MOTION_DDOT = 0

CCSDS_OMM_VERS = 2.0
CREATION_DATE  = 
ORIGINATOR     = 

OBJECT_NAME    = IDEFIX & ARIANE 42P R/B
OBJECT_ID      = 2002-021B
CENTER_NAME    = EARTH
REF_FRAME      = TEME
TIME_SYSTEM    = UTC
MEAN_ELEMENT_THEORY = SGP/SGP4

EPOCH          = 2026-03-30T09:38:38.054112
MEAN_MOTION    = 14.31040174
ECCENTRICITY   = .0012654
INCLINATION    = 98.5894
RA_OF_ASC_NODE = 27.7635
ARG_OF_PERICENTER = 123.2530
MEAN_ANOMALY   = 236.9867

EPHEMERIS_TYPE = 0
CLASSIFICATION_TYPE = U
NORAD_CAT_ID   = 27422
ELEMENT_SET_NO = 999
REV_AT_EPOCH   = 24698
BSTAR          = .14253E-3
MEAN_MOTION_DOT = .332E-5
MEAN_MOTION_DDOT = 0

